[{"OBJECT_NAME":"TIANMU-1 08","OBJECT_ID":"2023-101B","EPOCH":"2026-03-07T00:03:25.475616","MEAN_MOTION":15.29204229,"ECCENTRICITY":0.00063808,"INCLINATION":97.2717,"RA_OF_ASC_NODE":118.7901,"ARG_OF_PERICENTER":134.2174,"MEAN_ANOMALY":225.9592,"EPHEMERIS_TYPE":0,"CLASSIFICATION_TYPE":"U","NORAD_CAT_ID":57400,"ELEMENT_SET_NO":999,"REV_AT_EPOCH":14602,"BSTAR":1.4774513e-5,"MEAN_MOTION_DOT":3.46e-6,"MEAN_MOTION_DDOT":0},{"OBJECT_NAME":"STARLINK-33727","OBJECT_ID":"2025-087Y","EPOCH":"2026-03-09T16:39:49.271328","MEAN_MOTION":15.30239099,"ECCENTRICITY":5.862e-5,"INCLINATION":53.1582,"RA_OF_ASC_NODE":219.2984,"ARG_OF_PERICENTER":92.8431,"MEAN_ANOMALY":267.2637,"EPHEMERIS_TYPE":0,"CLASSIFICATION_TYPE":"U","NORAD_CAT_ID":63719,"ELEMENT_SET_NO":999,"REV_AT_EPOCH":4920,"BSTAR":0.00097595897,"MEAN_MOTION_DOT":0.00028693,"MEAN_MOTION_DDOT":0}]
